TRANSIT 16 [?]          
1 02807U 67048A   22226.48593218  .00000064  00000+0  83348-4 0  9995
2 02807  89.6539  34.4762 0021395  37.6440  15.8411 13.50319954718601
TRANSIT 17 [?]          
1 02965U 67092A   22226.26519557  .00000083  00000+0  10560-3 0  9995
2 02965  89.2390 118.9982 0047742 165.3159 309.6650 13.53031902706455
TRANSIT 18 [?]          
1 03133U 68012A   22226.54554630  .00000066  00000+0  84437-4 0  9994
2 03133  90.0038 271.6226 0077220  93.0919  30.3846 13.51158524404936
NNSS 19 [?]             
1 04507U 70067A   22226.48478096  .00000075  00000+0  92898-4 0  9997
2 04507  89.9200 238.8889 0171112 215.5238 143.4425 13.50833940557995
NNSS O-20 [?]           
1 06909U 73081A   22226.51706360  .00000117  00000+0  10820-3 0  9997
2 06909  89.8170 276.3593 0158432 122.7233 238.9316 13.70688660636964
TRANSAT [?]             
1 10457U 77106A   22226.25824130  .00000073  00000+0  10019-3 0  9990
2 10457  89.6818 120.6675 0027052  99.0954  13.6499 13.48683604203457
NOVA I [?]              
1 12458U 81044A   22226.24483598  .00000084  00000+0  17942-3 0  9991
2 12458  89.8865 107.0587 0013109 213.3969 263.7671 13.23068308990982
NOVA 3 [?]              
1 15362U 84110A   22226.50007543  .00000023  00000+0  33819-4 0  9991
2 15362  90.0945  67.5242 0033732  82.7159 335.6576 13.22836611826185
OSCAR 30 [?]            
1 15935U 85066A   22226.52699286  .00000058  00000+0  93164-4 0  9998
2 15935  90.1740  78.9268 0166993 274.7682 144.0187 13.35760606802154
OSCAR 24 [?]            
1 15936U 85066B   22226.53304812  .00000062  00000+0  99781-4 0  9994
2 15936  90.1690  70.8802 0167533 280.5181 136.4520 13.35620903804078
POLAR BEAR [?]          
1 17070U 86088A   22226.51166917  .00000057  00000+0  47307-4 0  9991
2 17070  89.5614 234.9410 0038826 185.3127 292.0901 13.74874517792656
OSCAR 27 [?]            
1 18361U 87080A   22226.48756782  .00000050  00000+0  68014-4 0  9990
2 18361  90.3297  36.1511 0106286 107.0693 254.2130 13.44569060712114
OSCAR 29 [?]            
1 18362U 87080B   22226.47612547  .00000090  00000+0  13445-3 0  9991
2 18362  90.3308  36.4836 0107651 127.1711 287.4259 13.44156356711694
OSCAR 23 [?]            
1 19070U 88033A   22226.35948286  .00000046  00000+0  80226-4 0  9999
2 19070  90.3359 338.6175 0188591 323.1328  94.4406 13.27524841661136
OSCAR 32 [?]            
1 19071U 88033B   22226.34484132  .00000049  00000+0  86799-4 0  9998
2 19071  90.3359 338.7037 0186613 310.9798 107.5738 13.27704724661238
NOVA 11 [?]             
1 19223U 88052A   22226.26447875  .00000064  00000+0  13016-3 0  9990
2 19223  89.9712  80.7332 0032033 124.1211 307.2495 13.22748288648655
OSCAR 25 [?]            
1 19419U 88074A   22226.49263205  .00000042  00000+0  54801-4 0  9993
2 19419  90.0058  17.9093 0098191 115.0877 313.2012 13.42299825663220
OSCAR 31 [?]            
1 19420U 88074B   22226.50672642  .00000064  00000+0  92371-4 0  9994
2 19420  90.0068  18.0911 0096421 109.2989 320.8620 13.42310181663337
